NORAD_CAT_ID,OBJECT_NAME,OBJECT_TYPE,EPOCH,MEAN_MOTION,ECCENTRICITY,INCLINATION,RA_OF_ASC_NODE,ARG_OF_PERICENTER,MEAN_ANOMALY,BSTAR,MEAN_MOTION_DOT,MEAN_MOTION_DDOT,TLE_LINE0,TLE_LINE1,TLE_LINE2,SEMIMAJOR_AXIS,PERIOD,APOGEE,PERIGEE,DECAYED
49752.0,STARLINK-3209,PAYLOAD,2024-02-26 22:05:47,15.08838172,0.0001282,53.2147,229.0593,93.8397,266.2741,-1.8628e-05,-5.84e-06,0.0,0 STARLINK-3209,1 49752U 21115AE  24057.92068333 -.00000584  00000-0 -18628-4 0  9997,2 49752  53.2147 229.0593 0001282  93.8397 266.2741 15.08838172123695,6917.886,95.438,540.638,538.864,0.0
49752.0,STARLINK-3209,PAYLOAD,2024-02-27 12:24:15,15.0884022,0.0001119,53.2146,226.3833,100.1368,259.9751,0.00023163,3.4e-05,0.0,0 STARLINK-3209,1 49752U 21115AE  24058.51684398  .00003400  00000-0  23163-3 0  9995,2 49752  53.2146 226.3833 0001119 100.1368 259.9751 15.08840220123787,6917.88,95.438,540.519,538.971,0.0
49752.0,STARLINK-3209,PAYLOAD,2024-02-27 18:45:47,15.08846896,0.0001242,53.2155,225.1944,94.4181,265.6953,0.00042098,6.42e-05,0.0,0 STARLINK-3209,1 49752U 21115AE  24058.78180298  .00006420  00000-0  42098-3 0  9997,2 49752  53.2155 225.1944 0001242  94.4181 265.6953 15.08846896124933,6917.859,95.437,540.584,538.865,0.0
49752.0,STARLINK-3209,PAYLOAD,2024-02-27 20:21:10,15.08853996,0.0001314,53.2157,224.8967,85.2553,274.859,0.00085286,0.00013317,0.0,0 STARLINK-3209,1 49752U 21115AE  24058.84804163  .00013317  00000-0  85286-3 0  9997,2 49752  53.2157 224.8967 0001314  85.2553 274.8590 15.08853996123833,6917.838,95.437,540.612,538.794,0.0
49752.0,STARLINK-3209,PAYLOAD,2024-02-28 10:39:39,15.08836988,0.0001056,53.2161,222.222,93.8637,266.2476,3.3167e-05,2.4e-06,0.0,0 STARLINK-3209,1 49752U 21115AE  24059.44420616  .00000240  00000-0  33167-4 0  9994,2 49752  53.2161 222.2220 0001056  93.8637 266.2476 15.08836988125037,6917.89,95.438,540.485,539.024,0.0
49752.0,STARLINK-3209,PAYLOAD,2024-02-28 20:12:00,15.08707676,0.0001598,53.2162,220.4375,102.9174,257.1997,-0.0039395,-0.00062219,0.0,0 STARLINK-3209,1 49752U 21115AE  24059.84167741 -.00062219  00000-0 -39395-2 0  9998,2 49752  53.2162 220.4375 0001598 102.9174 257.1997 15.08707676125092,6918.285,95.446,541.255,539.044,0.0
49752.0,STARLINK-3209,PAYLOAD,2024-02-29 04:08:53,15.08874761,0.0001621,53.2168,218.9496,84.9239,275.1938,0.00094565,0.00014808,0.0,0 STARLINK-3209,1 49752U 21115AE  24060.17283695  .00014808  00000-0  94565-3 0  9993,2 49752  53.2168 218.9496 0001621  84.9239 275.1938 15.08874761125143,6917.774,95.435,540.761,538.518,0.0
49752.0,STARLINK-3209,PAYLOAD,2024-02-29 13:41:12,15.08844573,0.0001158,53.2162,217.1659,97.3836,262.7287,0.00016428,2.328e-05,0.0,0 STARLINK-3209,1 49752U 21115AE  24060.57028429  .00002328  00000-0  16428-3 0  9995,2 49752  53.2162 217.1659 0001158  97.3836 262.7287 15.08844573125209,6917.866,95.437,540.533,538.93,0.0
49752.0,STARLINK-3209,PAYLOAD,2024-02-29 20:02:45,15.08837452,0.0001129,53.2164,215.9767,73.7677,286.344,1.2157e-05,-9.4e-07,0.0,0 STARLINK-3209,1 49752U 21115AE  24060.83524636 -.00000094  00000-0  12157-4 0  9990,2 49752  53.2164 215.9767 0001129  73.7677 286.3440 15.08837452124138,6917.888,95.438,540.534,538.972,0.0
49752.0,STARLINK-3209,PAYLOAD,2024-03-01 13:32:00,15.08836512,0.0001196,53.2161,212.7049,73.5605,286.5518,0.000103,1.352e-05,0.0,0 STARLINK-3209,1 49752U 21115AE  24061.56389030  .00001352  00000-0  10300-3 0  9992,2 49752  53.2161 212.7049 0001196  73.5605 286.5518 15.08836512124242,6917.891,95.438,540.583,538.929,0.0
49752.0,STARLINK-3209,PAYLOAD,2024-03-01 16:42:46,15.0883553,0.0001187,53.2161,212.1099,89.0433,271.0695,7.5106e-05,9.08e-06,0.0,0 STARLINK-3209,1 49752U 21115AE  24061.69637035  .00000908  00000-0  75106-4 0  9999,2 49752  53.2161 212.1099 0001187  89.0433 271.0695 15.08835530124268,6917.894,95.438,540.58,538.938,0.0
49752.0,STARLINK-3209,PAYLOAD,2024-03-02 13:22:47,15.08837662,0.000128,53.2161,208.2434,87.6774,272.4365,0.00024368,3.592e-05,0.0,0 STARLINK-3209,1 49752U 21115AE  24062.55749453  .00003592  00000-0  24368-3 0  9998,2 49752  53.2161 208.2434 0001280  87.6774 272.4365 15.08837662124394,6917.888,95.438,540.638,538.867,0.0
49752.0,STARLINK-3209,PAYLOAD,2024-03-02 14:58:10,15.08838841,0.0001274,53.2159,207.9461,89.4915,270.6223,0.00022413,3.281e-05,0.0,0 STARLINK-3209,1 49752U 21115AE  24062.62373421  .00003281  00000-0  22413-3 0  9998,2 49752  53.2159 207.9461 0001274  89.4915 270.6223 15.08838841125515,6917.884,95.438,540.63,538.868,0.0
49752.0,STARLINK-3209,PAYLOAD,2024-03-03 14:48:57,15.08838757,0.0001726,53.219,203.4942,112.7084,247.4091,0.00017933,2.567e-05,0.0,0 STARLINK-3209,1 49752U 21115AE  24063.61733602  .00002567  00000-0  17933-3 0  9996,2 49752  53.2190 203.4942 0001726 112.7084 247.4091 15.08838757124558,6917.884,95.438,540.943,538.555,0.0
49752.0,STARLINK-3209,PAYLOAD,2024-03-03 16:24:20,15.08839058,0.0001742,53.2187,203.1969,114.4861,245.6313,0.00017258,2.46e-05,0.0,0 STARLINK-3209,1 49752U 21115AE  24063.68357588  .00002460  00000-0  17258-3 0  9990,2 49752  53.2187 203.1969 0001742 114.4861 245.6313 15.08839058124563,6917.883,95.438,540.953,538.543,0.0
49752.0,STARLINK-3209,PAYLOAD,2024-03-04 13:04:20,15.0885907,0.0001436,53.217,199.3273,99.2625,260.8529,0.0003536,5.347e-05,0.0,0 STARLINK-3209,1 49752U 21115AE  24064.54468362  .00005347  00000-0  35360-3 0  9990,2 49752  53.2170 199.3273 0001436  99.2625 260.8529 15.08859070125809,6917.822,95.436,540.68,538.694,0.0
49752.0,STARLINK-3209,PAYLOAD,2024-03-04 14:39:43,15.08861624,0.000142,53.2167,199.0299,96.3623,263.7531,0.00045141,6.908e-05,0.0,0 STARLINK-3209,1 49752U 21115AE  24064.61092313  .00006908  00000-0  45141-3 0  9999,2 49752  53.2167 199.0299 0001420  96.3623 263.7531 15.08861624124700,6917.814,95.436,540.662,538.697,0.0
49752.0,STARLINK-3209,PAYLOAD,2024-03-04 16:15:06,15.08864477,0.0001408,53.2164,198.7323,92.3022,267.8131,0.00062391,9.662e-05,0.0,0 STARLINK-3209,1 49752U 21115AE  24064.67716286  .00009662  00000-0  62391-3 0  9993,2 49752  53.2164 198.7323 0001408  92.3022 267.8131 15.08864477124717,6917.806,95.436,540.645,538.697,0.0
49752.0,STARLINK-3209,PAYLOAD,2024-03-05 14:30:30,15.08831587,0.0001373,53.2151,194.5603,138.2341,221.8756,0.00011349,1.518e-05,0.0,0 STARLINK-3209,1 49752U 21115AE  24065.60452536  .00001518  00000-0  11349-3 0  9991,2 49752  53.2151 194.5603 0001373 138.2341 221.8756 15.08831587124857,6917.906,95.438,540.721,538.821,0.0
49752.0,STARLINK-3209,PAYLOAD,2024-03-05 16:05:54,15.08828519,0.0001249,53.2148,194.2636,138.3407,221.768,-4.8242e-05,-1.055e-05,0.0,0 STARLINK-3209,1 49752U 21115AE  24065.67076647 -.00001055  00000-0 -48242-4 0  9994,2 49752  53.2148 194.2636 0001249 138.3407 221.7680 15.08828519125972,6917.915,95.438,540.645,538.916,0.0
49752.0,STARLINK-3209,PAYLOAD,2024-03-06 14:21:18,15.08844441,0.000133,53.2152,190.1069,102.9414,257.1727,0.00098955,0.00015498,0.0,0 STARLINK-3209,1 49752U 21115AE  24066.59813523  .00015498  00000-0  98955-3 0  9997,2 49752  53.2152 190.1069 0001330 102.9414 257.1727 15.08844441125009,6917.867,95.437,540.652,538.812,0.0
49752.0,STARLINK-3209,PAYLOAD,2024-03-06 15:56:42,15.08852136,0.0001273,53.2148,189.8094,102.783,257.3305,0.0013682,0.00021561,0.0,0 STARLINK-3209,1 49752U 21115AE  24066.66437522  .00021561  00000-0  13682-2 0  9997,2 49752  53.2148 189.8094 0001273 102.7830 257.3305 15.08852136126121,6917.843,95.437,540.589,538.828,0.0
49752.0,STARLINK-3209,PAYLOAD,2024-03-07 01:29:00,15.08859797,0.0001404,53.2157,188.0242,78.9827,281.1323,0.00098108,0.00015369,0.0,0 STARLINK-3209,1 49752U 21115AE  24067.06181260  .00015369  00000-0  98108-3 0  9993,2 49752  53.2157 188.0242 0001404  78.9827 281.1323 15.08859797126184,6917.82,95.436,540.656,538.714,0.0
49752.0,STARLINK-3209,PAYLOAD,2024-03-07 14:12:06,15.0884087,0.0001412,53.215,185.6458,87.1017,273.0137,0.00037659,5.711e-05,0.0,0 STARLINK-3209,1 49752U 21115AE  24067.59173730  .00005711  00000-0  37659-3 0  9998,2 49752  53.2150 185.6458 0001412  87.1017 273.0137 15.08840870125152,6917.878,95.437,540.72,538.766,0.0
49752.0,STARLINK-3209,PAYLOAD,2024-03-08 14:02:53,15.08853537,0.0001543,53.2157,181.1834,89.0613,271.0556,0.0009208,0.00014402,0.0,0 STARLINK-3209,1 49752U 21115AE  24068.58533896  .00014402  00000-0  92080-3 0  9997,2 49752  53.2157 181.1834 0001543  89.0613 271.0556 15.08853537125300,6917.839,95.437,540.771,538.637,0.0
49752.0,STARLINK-3209,PAYLOAD,2024-03-09 13:53:40,15.08838925,0.0001341,53.216,176.723,91.6035,268.5111,2.437e-06,-2.49e-06,0.0,0 STARLINK-3209,1 49752U 21115AE  24069.57893590 -.00000249  00000-0  24370-5 0  9991,2 49752  53.2160 176.7230 0001341  91.6035 268.5111 15.08838925126568,6917.884,95.438,540.676,538.821,0.0
49752.0,STARLINK-3209,PAYLOAD,2024-03-09 17:04:26,15.08839832,0.000135,53.216,176.1278,92.3519,267.7627,0.00023231,3.411e-05,0.0,0 STARLINK-3209,1 49752U 21115AE  24069.71141676  .00003411  00000-0  23231-3 0  9994,2 49752  53.2160 176.1278 0001350  92.3519 267.7627 15.08839832125479,6917.881,95.438,540.68,538.812,0.0
49752.0,STARLINK-3209,PAYLOAD,2024-03-10 12:09:04,15.08836022,0.000134,53.2169,172.5594,91.12,268.9946,0.00025,3.693e-05,0.0,0 STARLINK-3209,1 49752U 21115AE  24070.50630218  .00003693  00000-0  25000-3 0  9996,2 49752  53.2169 172.5594 0001340  91.1200 268.9946 15.08836022125590,6917.893,95.438,540.685,538.831,0.0
49752.0,STARLINK-3209,PAYLOAD,2024-03-10 23:16:46,15.0885038,0.0001269,53.2178,170.4808,96.4894,263.6243,0.0004804,7.368e-05,0.0,0 STARLINK-3209,1 49752U 21115AE  24070.96997856  .00007368  00000-0  48040-3 0  9992,2 49752  53.2178 170.4808 0001269  96.4894 263.6243 15.08850380126778,6917.849,95.437,540.592,538.836,0.0
49752.0,STARLINK-3209,PAYLOAD,2024-03-11 13:35:14,15.08836244,0.0001656,53.2196,167.8098,108.684,251.4332,0.00010648,1.407e-05,0.0,0 STARLINK-3209,1 49752U 21115AE  24071.56614367  .00001407  00000-0  10648-3 0  9993,2 49752  53.2196 167.8098 0001656 108.6840 251.4332 15.08836244126863,6917.892,95.438,540.902,538.611,0.0
